CSS (TIANHE)            
1 48274U 21035A   23328.28428167  .00043889  00000+0  48049-3 0  9991
2 48274  41.4711 261.0900 0006539 214.0607 145.9813 15.62459623146865
